#dP2023  9  2 18  0  0.00000000      96 __u+U ITR00 EXT  IAC
## 2277 583200.00000000   900.00000000 60189 0.7500000000000
+  118   C06C07C08C09C10C11C12C13C14C16C19C20C21C22C23C24C25
+        C26C27C28C29C30C32C33C34C35C36C37C38C39C40C41C42C43
+        C44C45C46E02E03E04E05E07E08E09E10E11E12E13E14E15E18
+        E19E21E24E25E26E27E30E31E33E34E36G01G02G03G04G05G06
+        G07G08G09G10G11G13G14G15G16G17G18G19G20G21G22G23G24
+        G25G26G27G28G29G30G31G32J02J03J04R01R02R03R04R05R07
+        R08R09R11R12R13R14R15R16R17R18R19R20R21R22R24R25  0
++         9 11  9  9 10  7  7  9  9 10  9  9  7  9  9  9  9
++         8  9  7  9  8  9  8  8  9  9  8 10  9  6  8  8  6
++         8  8  8  8  6  7  7  8  8  7  7  8  8  7  8  7  7
++         8  7  7  7  8  8  9  8  8  7  6  6  7  7  8  7  7
++         8  6  7  6  7  8  7  7  7  7  6  7  8  6  6  6  7
++         7  7  6  8  6  7  7  6  8  8 10  8  7  6  8  7  9
++         8  8  9  7  8  9  8  8  9  8  8  9  8  8  8  7  0
%c M  cc GPS ccc cccc cccc cccc cccc ccccc ccccc ccccc ccccc
%c cc cc ccc ccc cccc cccc cccc cccc ccccc ccccc ccccc ccccc
%f  0.0000000  0.000000000  0.00000000000  0.000000000000000
%f  0.0000000  0.000000000  0.00000000000  0.000000000000000
%i    0    0    0    0      0      0      0      0         0
%i    0    0    0    0      0      0      0      0         0
/* IAC                                ULTRA-RAPID PREDICTION
/* S/V CLOCKS ARE ALIGNED TO GNSS TIME                      
/* G:C1WC2W R:C1PC2P E:C1XC5X C:C2IC6I J:C1CC2S             
/* PCV:IGS20_2274 OL/AL:FES2004  NONE     YN ORB:CoN CLK:CoN
*  2023 09 03 17 15  0.00000000
PC06 -13438.555291  39744.946893   2277.361130     23.517323
PC07  -3774.634588  30526.778695  28996.571065    -31.086629
PC08 -16962.684780  21622.745722 -32073.456874    361.888389
PC09  -8519.307053  39559.353399  11145.468159    211.554832
PC10   3821.785099  33590.680350  25842.227654   -166.458509
PC11 -12370.417141  20506.355113  14419.013628    813.247409
PC12 -15598.893114    999.645748  23157.543363    927.245194
PC13  -9344.323031  23256.837933 -33835.010697    345.658321
PC14 -12424.590400  10239.210639 -22781.158261    341.564797
PC16 -15615.404479  38947.322173  -1307.797275    -63.871076
PC19   3103.062428 -16436.836600  22348.117222   -970.684086
PC20  18673.923136  -3672.223966  20421.423326    311.891932
PC21 -24244.364904 -12447.011581  -5941.336275   -962.040662
PC22 -15104.890476 -20450.859258  11464.899655   -323.106772
PC23   4534.350501  15816.409335  22550.266944   -883.284598
PC24 -25917.779256  10205.037690  -1920.494608    353.823505
PC25 -13905.357862  18836.562310  15193.630427    203.418044
PC26 -22203.364099  -2674.611986 -16725.530091   -172.511143
PC27  14551.111747   8816.481885 -22138.016090    193.938808
PC28   6259.671685  24060.623047 -12680.235173    145.338923
PC29   6192.380999 -26492.984665  -6197.686964    169.661459
PC30  15071.655160 -11816.483771 -20308.110660     -4.384902
PC32  24350.410539  12335.475960   5837.050851   -529.598941
PC33  -3093.120721  16436.298706 -22346.449476   -955.184824
PC34 -14757.499335  13267.415238  19603.245846    251.509384
PC35  -7082.877862 -23932.948342  12502.922149    554.177793
PC36  15071.613664 -18375.796239 -14591.411323   -243.862036
PC37  21552.523306   3886.043681  17299.093457   -819.692040
PC38 -24253.268450  22799.450584 -25962.420972    102.427735
PC39 -16906.500591  37655.724965  -7894.850473     -4.614740
PC40  -7108.192355  25564.394716  32855.250951    -35.196108
PC41  14628.210219  20475.801811 -12027.111641   -881.592926
PC42 -19610.338677   2496.364061 -19651.406920   -557.853231
PC43  -6796.183117  26142.327664   6972.749754     38.152562
PC44 -14943.599852  -8519.410447  21965.470310    220.247011
PC45  -5078.004945 -15456.378150 -22666.806199    -21.469843
PC46  25621.165722 -10985.344292    667.730184    -81.492842
PE02  21746.021721  13534.882612  14829.202135     59.928956
PE03  16638.173062  22295.860648  10123.482424    -52.353826
PE04 -18639.925963  -3714.956909 -22688.582513   -203.977701
PE05   4931.611345  27956.932040  -8388.641411     15.016480
PE07   9917.648036 -16932.501466  22158.759186    -72.165649
PE08  18610.717943   4258.841256  22619.669514   -140.549549
PE09  -9863.645515  16780.613402 -22305.720121   -143.541898
PE10 -22029.819695  15489.350489  12293.152083   -561.016758
PE11 -19300.166819  22329.111641   2227.493404   2859.329778
PE12 -21259.919229   6779.233458  19438.552443   -683.420638
PE13  19576.399281 -21999.344864  -2974.422782    -19.556176
PE14 -14354.189491 -15083.014852  10862.662803    329.958353
PE15  21093.395058  -6441.749022 -19737.841760    -50.326589
PE18  20447.040672  18696.132301 -16925.159124    488.926959
PE19 -15441.398288 -23990.570079  -7885.828036  -1709.183096
PE21  -2545.337090 -17084.468553 -24031.495654   -550.495158
PE24 -19725.083967  10600.537186  19359.835198   -301.640277
PE25   2120.048738  17070.399116  24100.311742     -1.264181
PE26   5956.091018 -24316.643012  15783.247342    211.845825
PE27  19135.781354 -10951.484524 -19738.301056   -140.886984
PE30  29328.543762   1939.366977  -3462.226498   -470.712156
PE31 -29304.520355  -1545.660521   3892.365605     -4.217130
PE33  -9764.091221 -13193.576876  24629.456516     -0.885399
PE34  10270.203715  12656.796355 -24717.890328    -65.082654
PE36  -6628.001912  24465.196347 -15290.872371   -110.748421
PG01 -13818.811906  21878.694347  -5453.476293    166.456568
PG02 -16789.743020  20237.852711   3483.269646   -558.168797
PG03  -8790.947506  13152.631579 -21461.084746   -154.549940
PG04  -2713.026054  22298.843395 -14066.548634    145.220393
PG05  22623.999633  -6062.659862  12436.893219   -141.315016
PG06  14805.950482   4351.614010 -21569.794320    556.462908
PG07    392.704639  19786.165079  17954.757048     77.416310
PG08  -9836.055078  13701.636038  20345.975656   -140.415277
PG09   5404.218973  25203.251934  -6379.256763    -69.511446
PG10 -21538.254425 -11161.823964  11366.678486    -51.915870
PG11  20750.425583  -8259.940219 -14322.372181   -351.277001
PG13  14230.544368  -4576.260422  21754.645689    568.131425
PG14  18665.555682  13426.350629  13462.609366    173.942465
PG15   7679.177783 -15765.298284  19403.794780     74.011754
PG16 -25266.259619   -236.330363   8584.791647   -459.372147
PG17  13141.638644  20846.317234  -9323.749693    723.451823
PG18  -1498.921667 -18323.451832  19104.753987   -405.073377
PG19  15427.516036  14480.726424 -16463.514910    366.542058
PG20  26365.589259  -1478.241009   1653.401789    413.777187
PG21 -17559.666678  18489.965646   5972.899719    149.603856
PG22  22825.489629  11259.801183   7535.305992    128.927610
PG23 -10327.984095 -14751.554368  19586.805601     63.473119
PG24  14675.763324 -21854.763170    -44.518551   -309.047469
PG25  -2071.158862 -15831.143639 -21570.776675    465.802822
PG26 -26309.384236  -4210.161965  -2527.025272    230.201007
PG27 -15601.061095    431.105033  21290.478680    -33.354390
PG28 -14119.514826  -6323.953114 -21611.616731     -5.091103
PG29  -3207.123360 -25588.248858  -6171.194656   -608.848594
PG30   9276.328631  13253.896927  21157.276329   -490.978257
PG31 -19679.880805   3612.870881 -17854.814140   -222.846365
PG32 -16073.586468 -17045.571383 -12520.888228   -551.921820
PJ02 -29897.847944  21650.100038  25471.949114     -3.460602
PJ03 -31548.823164  26234.181357  14928.368261     -2.068498
PJ04 -23603.902489  21859.427396 -22182.037823     70.529020
PR01  19275.804426  16178.028543   4198.714253     64.848606
PR02  16126.927580   3853.357781  19396.198515    -22.470189
PR03   4214.210645 -11024.805388  22660.544311     84.534992
PR04  -9701.883476 -19371.648207  13500.800320    201.328902
PR05 -18364.395936 -17467.843851  -2999.407133    118.416617
PR07  -3581.801330  11529.238934 -22428.294691     63.851807
PR08   9948.649900  19360.499916 -13216.953955    -72.380696
PR09 -24699.592182   5857.975312  -1997.395481    140.262416
PR11  -1401.485095  11524.613505  22725.329068   -151.698498
PR12  17776.896118   4286.524844  17808.543802     30.884201
PR13  24756.473662  -4547.751416   4128.803068    -38.823465
PR14  17375.820849 -11807.301336 -14466.236267     25.201474
PR15     29.526093 -11338.008810 -22825.110953     86.498956
PR16 -17536.926128  -4189.396835 -18011.556227     18.324686
PR17  10175.150348 -22043.928191  -7734.210675     14.341303
PR18   3060.486631 -23720.434882   8939.115486    100.089428
PR19  -4589.909272 -14661.647064  20356.993645   -245.881389
PR20 -12278.117692   6647.351730  21346.876821    -99.413573
PR21  -9996.410024  22497.873819   6747.253657    -35.278745
PR22  -3130.275849  23359.242569  -9725.769264    124.820788
PR24  12503.773417  -7612.361404 -20866.277267    -22.960766
PR25 -11266.567344  21557.312188   7732.717745     39.500261
EOF
